[{"OBJECT_NAME":"KANOPUS-V 3","OBJECT_ID":"2018-014A","EPOCH":"2026-03-09T18:51:55.321344","MEAN_MOTION":15.22779463,"ECCENTRICITY":0.00015305,"INCLINATION":97.3645,"RA_OF_ASC_NODE":336.3173,"ARG_OF_PERICENTER":84.6861,"MEAN_ANOMALY":275.455,"EPHEMERIS_TYPE":0,"CLASSIFICATION_TYPE":"U","NORAD_CAT_ID":43180,"ELEMENT_SET_NO":999,"REV_AT_EPOCH":44959,"BSTAR":4.5590396e-5,"MEAN_MOTION_DOT":9.96e-6,"MEAN_MOTION_DDOT":0},{"OBJECT_NAME":"LEO EXPRESS 2","OBJECT_ID":"2025-009BS","EPOCH":"2026-03-09T18:02:20.136480","MEAN_MOTION":15.18978124,"ECCENTRICITY":0.00254218,"INCLINATION":96.6294,"RA_OF_ASC_NODE":150.033,"ARG_OF_PERICENTER":119.8002,"MEAN_ANOMALY":240.5767,"EPHEMERIS_TYPE":0,"CLASSIFICATION_TYPE":"U","NORAD_CAT_ID":62673,"ELEMENT_SET_NO":999,"REV_AT_EPOCH":12143,"BSTAR":0.00029070502,"MEAN_MOTION_DOT":6.074e-5,"MEAN_MOTION_DDOT":0}]
